{"fetched_at":"2026-03-30T13:17:50Z","count":15418,"tles":[{"name":"STARLINK-11666 [DTC]","line1":"1 63667U 25085D   26087.93124665  .00307133  00000+0  23040-2 0  9994","line2":"2 63667  43.0001 162.8286 0002845  63.9236 296.1924 15.70898295 53172","category":"Starlink"}]}